NORAD_CAT_ID,OBJECT_NAME,OBJECT_TYPE,EPOCH,MEAN_MOTION,ECCENTRICITY,INCLINATION,RA_OF_ASC_NODE,ARG_OF_PERICENTER,MEAN_ANOMALY,BSTAR,MEAN_MOTION_DOT,MEAN_MOTION_DDOT,TLE_LINE0,TLE_LINE1,TLE_LINE2,SEMIMAJOR_AXIS,PERIOD,APOGEE,PERIGEE,DECAYED
54759.0,STARLINK-5215,PAYLOAD,2023-03-19 13:56:27,15.08848042,0.0001155,53.2171,234.8485,100.761,259.3512,0.0010096,0.0001582,0.0,0 STARLINK-5215,1 54759U 22175B   23078.58086837  .00015820  00000-0  10096-2 0  9996,2 54759  53.2171 234.8485 0001155 100.7610 259.3512 15.08848042 13867,6917.856,95.437,540.52,538.922,0.0
54759.0,STARLINK-5215,PAYLOAD,2023-03-19 20:17:59,15.08852287,0.0001202,53.2176,233.6594,94.1791,265.9339,0.0011705,0.00018396,0.0,0 STARLINK-5215,1 54759U 22175B   23078.84582699  .00018396  00000-0  11705-2 0  9991,2 54759  53.2176 233.6594 0001202  94.1791 265.9339 15.08852287 16060,6917.843,95.437,540.539,538.876,0.0
54759.0,STARLINK-5215,PAYLOAD,2023-03-20 13:47:14,15.08841921,0.000129,53.2182,230.3881,101.8975,258.2162,0.00088873,0.00013885,0.0,0 STARLINK-5215,1 54759U 22175B   23079.57447250  .00013885  00000-0  88873-3 0  9994,2 54759  53.2182 230.3881 0001290 101.8975 258.2162 15.08841921 14012,6917.875,95.437,540.632,538.847,0.0
54759.0,STARLINK-5215,PAYLOAD,2023-03-20 16:58:00,15.08845744,0.0001344,53.2179,229.7938,85.8686,274.2459,0.0010582,0.00016596,0.0,0 STARLINK-5215,1 54759U 22175B   23079.70695343  .00016596  00000-0  10582-2 0  9990,2 54759  53.2179 229.7938 0001344  85.8686 274.2459 15.08845744 16198,6917.863,95.437,540.658,538.798,0.0
54759.0,STARLINK-5215,PAYLOAD,2023-03-21 02:30:19,15.08845515,0.000159,53.2186,228.0086,76.8288,283.2882,0.0010319,0.00016175,0.0,0 STARLINK-5215,1 54759U 22175B   23080.10439418  .00016175  00000-0  10319-2 0  9996,2 54759  53.2186 228.0086 0001590  76.8288 283.2882 15.08845515 16256,6917.864,95.437,540.828,538.629,0.0
54759.0,STARLINK-5215,PAYLOAD,2023-03-21 13:38:01,15.08848906,0.0001354,53.2188,225.9286,84.2821,275.8325,0.0008931,0.00013958,0.0,0 STARLINK-5215,1 54759U 22175B   23080.56807163  .00013958  00000-0  89310-3 0  9996,2 54759  53.2188 225.9286 0001354  84.2821 275.8325 15.08848906 14164,6917.853,95.437,540.655,538.781,0.0
54759.0,STARLINK-5215,PAYLOAD,2023-03-22 02:21:06,15.0885121,0.0001322,53.2187,223.5485,77.136,282.978,0.0003739,5.669e-05,0.0,0 STARLINK-5215,1 54759U 22175B   23081.09798837  .00005669  00000-0  37390-3 0  9993,2 54759  53.2187 223.5485 0001322  77.1360 282.9780 15.08851210 14247,6917.846,95.437,540.626,538.797,0.0
54759.0,STARLINK-5215,PAYLOAD,2023-03-22 13:28:48,15.0884227,0.0001631,53.2191,221.4693,85.7856,274.3323,3.3362e-05,2.43e-06,0.0,0 STARLINK-5215,1 54759U 22175B   23081.56167039  .00000243  00000-0  33362-4 0  9998,2 54759  53.2191 221.4693 0001631  85.7856 274.3323 15.08842270 14310,6917.873,95.437,540.867,538.61,0.0
54759.0,STARLINK-5215,PAYLOAD,2023-03-22 16:39:34,15.08842949,0.0001601,53.2184,220.8729,84.0933,276.0241,9.1019e-05,1.161e-05,0.0,0 STARLINK-5215,1 54759U 22175B   23081.69414974  .00001161  00000-0  91019-4 0  9998,2 54759  53.2184 220.8729 0001601  84.0933 276.0241 15.08842949 16492,6917.871,95.437,540.844,538.629,0.0
54759.0,STARLINK-5215,PAYLOAD,2023-03-23 02:11:53,15.08826402,0.0001056,53.2191,219.0882,92.5757,267.5356,-0.00031358,-5.273e-05,0.0,0 STARLINK-5215,1 54759U 22175B   23082.09159265 -.00005273  00000-0 -31358-3 0  9991,2 54759  53.2191 219.0882 0001056  92.5757 267.5356 15.08826402 14397,6917.922,95.438,540.517,539.056,0.0
54759.0,STARLINK-5215,PAYLOAD,2023-03-23 13:19:35,15.08838767,0.0001129,53.2175,217.0101,91.6788,268.4333,-1.3054e-05,-4.96e-06,0.0,0 STARLINK-5215,1 54759U 22175B   23082.55527217 -.00000496  00000-0 -13054-4 0  9994,2 54759  53.2175 217.0101 0001129  91.6788 268.4333 15.08838767 14466,6917.884,95.438,540.53,538.968,0.0
54759.0,STARLINK-5215,PAYLOAD,2023-03-23 16:30:21,15.08853122,0.0001233,53.2185,216.4105,85.3156,274.7977,0.00020776,3.021e-05,0.0,0 STARLINK-5215,1 54759U 22175B   23082.68774476  .00003021  00000-0  20776-3 0  9992,2 54759  53.2185 216.4105 0001233  85.3156 274.7977 15.08853122 14487,6917.84,95.437,540.558,538.852,0.0
54759.0,STARLINK-5215,PAYLOAD,2023-03-24 11:34:57,15.08881886,0.0001666,53.2172,212.8475,74.3053,285.8123,0.00077905,0.00012146,0.0,0 STARLINK-5215,1 54759U 22175B   23083.48260922  .00012146  00000-0  77905-3 0  9991,2 54759  53.2172 212.8475 0001666  74.3053 285.8123 15.08881886 14605,6917.752,95.435,540.77,538.465,0.0
54759.0,STARLINK-5215,PAYLOAD,2023-03-24 13:10:20,15.08886562,0.0001784,53.2168,212.5506,76.774,283.3451,0.00084104,0.00013139,0.0,0 STARLINK-5215,1 54759U 22175B   23083.54884598  .00013139  00000-0  84104-3 0  9991,2 54759  53.2168 212.5506 0001784  76.7740 283.3451 15.08886562 16775,6917.738,95.435,540.837,538.369,0.0
54759.0,STARLINK-5215,PAYLOAD,2023-03-24 17:56:28,15.08913393,0.000138,53.2185,211.6558,93.8302,266.2848,0.0013193,0.00020813,0.0,0 STARLINK-5215,1 54759U 22175B   23083.74755000  .00020813  00000-0  13193-2 0  9994,2 54759  53.2185 211.6558 0001380  93.8302 266.2848 15.08913393 14644,6917.656,95.433,540.476,538.566,0.0
54759.0,STARLINK-5215,PAYLOAD,2023-03-25 08:14:59,15.08809017,0.0001631,53.2174,208.9802,110.419,249.6977,-0.00093243,-0.00015084,0.0,0 STARLINK-5215,1 54759U 22175B   23084.34374457 -.00015084  00000-0 -93243-3 0  9995,2 54759  53.2174 208.9802 0001631 110.4190 249.6977 15.08809017 14738,6917.975,95.44,540.968,538.712,0.0
54759.0,STARLINK-5215,PAYLOAD,2023-03-25 17:47:18,15.08822804,0.0001315,53.2183,207.1921,68.186,291.9272,-0.00031293,-5.262e-05,0.0,0 STARLINK-5215,1 54759U 22175B   23084.74118721 -.00005262  00000-0 -31293-3 0  9993,2 54759  53.2183 207.1921 0001315  68.1860 291.9272 15.08822804 14796,6917.933,95.439,540.708,538.888,0.0
54759.0,STARLINK-5215,PAYLOAD,2023-03-26 19:13:30,15.08838638,0.0001302,53.218,202.4355,87.6736,272.4405,0.0017262,0.0002729,0.0,0 STARLINK-5215,1 54759U 22175B   23085.80104552  .00027290  00000-0  17262-2 0  9990,2 54759  53.2180 202.4355 0001302  87.6736 272.4405 15.08838638 14958,6917.885,95.438,540.65,538.849,0.0
54759.0,STARLINK-5215,PAYLOAD,2023-03-27 12:42:44,15.0884283,0.0001457,53.2184,199.1715,58.0974,302.0159,0.0003887,5.904e-05,0.0,0 STARLINK-5215,1 54759U 22175B   23086.52968583  .00005904  00000-0  38870-3 0  9999,2 54759  53.2184 199.1715 0001457  58.0974 302.0159 15.08842830 15069,6917.872,95.437,540.745,538.729,0.0
54759.0,STARLINK-5215,PAYLOAD,2023-03-27 14:18:07,15.0885585,0.0001424,53.2187,198.8713,98.2674,261.848,0.00067264,0.00010438,0.0,0 STARLINK-5215,1 54759U 22175B   23086.59592172  .00010438  00000-0  67264-3 0  9990,2 54759  53.2187 198.8713 0001424  98.2674 261.8480 15.08855850 17239,6917.832,95.437,540.682,538.712,0.0
54759.0,STARLINK-5215,PAYLOAD,2023-03-27 17:28:53,15.08865061,0.0001369,53.2178,198.2737,109.05,251.064,0.00077669,0.00012103,0.0,0 STARLINK-5215,1 54759U 22175B   23086.72839738  .00012103  00000-0  77669-3 0  9998,2 54759  53.2178 198.2737 0001369 109.0500 251.0640 15.08865061 15092,6917.804,95.436,540.616,538.722,0.0
54759.0,STARLINK-5215,PAYLOAD,2023-03-27 23:50:26,15.08844225,0.0001344,53.2184,197.0861,102.4535,257.6608,5.7293e-05,6.24e-06,0.0,0 STARLINK-5215,1 54759U 22175B   23086.99336130  .00000624  00000-0  57293-4 0  9992,2 54759  53.2184 197.0861 0001344 102.4535 257.6608 15.08844225 15132,6917.867,95.437,540.662,538.803,0.0
54759.0,STARLINK-5215,PAYLOAD,2023-03-28 14:08:54,15.08852172,0.0001538,53.2187,194.4105,104.0078,256.1085,0.00098972,0.00015504,0.0,0 STARLINK-5215,1 54759U 22175B   23087.58951986  .00015504  00000-0  98972-3 0  9991,2 54759  53.2187 194.4105 0001538 104.0078 256.1085 15.08852172 17384,6917.843,95.437,540.772,538.644,0.0
54759.0,STARLINK-5215,PAYLOAD,2023-03-28 15:44:17,15.08857269,0.0001467,53.2183,194.1134,101.6093,258.5064,0.0011529,0.00018117,0.0,0 STARLINK-5215,1 54759U 22175B   23087.65575900  .00018117  00000-0  11529-2 0  9992,2 54759  53.2183 194.1134 0001467 101.6093 258.5064 15.08857269 15237,6917.828,95.436,540.707,538.678,0.0
54759.0,STARLINK-5215,PAYLOAD,2023-03-29 12:24:18,15.08860036,0.00011,53.2179,190.247,95.3441,264.7677,0.0010481,0.00016441,0.0,0 STARLINK-5215,1 54759U 22175B   23088.51687759  .00016441  00000-0  10481-2 0  9998,2 54759  53.2179 190.2470 0001100  95.3441 264.7677 15.08860036 15361,6917.819,95.436,540.445,538.923,0.0
54759.0,STARLINK-5215,PAYLOAD,2023-03-29 17:10:27,15.08863839,0.0001153,53.2177,189.3549,72.7204,287.3914,0.0013401,0.00021118,0.0,0 STARLINK-5215,1 54759U 22175B   23088.71559612  .00021118  00000-0  13401-2 0  9998,2 54759  53.2177 189.3549 0001153  72.7204 287.3914 15.08863839 17551,6917.808,95.436,540.47,538.875,0.0
54759.0,STARLINK-5215,PAYLOAD,2023-03-30 05:53:32,15.08840114,0.0001257,53.2181,186.9779,102.9307,257.1825,0.00063261,9.794e-05,0.0,0 STARLINK-5215,1 54759U 22175B   23089.24551902  .00009794  00000-0  63261-3 0  9997,2 54759  53.2181 186.9779 0001257 102.9307 257.1825 15.08840114 15475,6917.88,95.438,540.615,538.875,0.0
54759.0,STARLINK-5215,PAYLOAD,2023-03-30 18:36:37,15.08871817,0.0001427,53.2172,184.5984,85.6345,274.481,0.0021618,0.00034315,0.0,0 STARLINK-5215,1 54759U 22175B   23089.77543688  .00034315  00000-0  21618-2 0  9993,2 54759  53.2172 184.5984 0001427  85.6345 274.4810 15.08871817 15554,6917.783,95.436,540.635,538.661,0.0
54759.0,STARLINK-5215,PAYLOAD,2023-03-31 15:16:38,15.08876212,0.0001301,53.2174,180.7316,91.693,268.4211,0.0028274,0.00045043,0.0,0 STARLINK-5215,1 54759U 22175B   23090.63655490  .00045043  00000-0  28274-2 0  9990,2 54759  53.2174 180.7316 0001301  91.6930 268.4211 15.08876212 15687,6917.77,95.435,540.535,538.735,0.0
54759.0,STARLINK-5215,PAYLOAD,2023-03-31 18:27:24,15.08880988,0.0001494,53.2177,180.1357,76.2434,283.8725,0.0023193,0.00036859,0.0,0 STARLINK-5215,1 54759U 22175B   23090.76903261  .00036859  00000-0  23193-2 0  9996,2 54759  53.2177 180.1357 0001494  76.2434 283.8725 15.08880988 15709,6917.755,95.435,540.654,538.587,0.0
